[{"OBJECT_NAME":"STARLINK-31058","OBJECT_ID":"2023-211L","EPOCH":"2026-03-09T09:43:42.303072","MEAN_MOTION":15.27550552,"ECCENTRICITY":0.00014602,"INCLINATION":43.0017,"RA_OF_ASC_NODE":86.6677,"ARG_OF_PERICENTER":282.949,"MEAN_ANOMALY":77.1198,"EPHEMERIS_TYPE":0,"CLASSIFICATION_TYPE":"U","NORAD_CAT_ID":58677,"ELEMENT_SET_NO":999,"REV_AT_EPOCH":12242,"BSTAR":2.9351814e-5,"MEAN_MOTION_DOT":5.45e-6,"MEAN_MOTION_DDOT":0},{"OBJECT_NAME":"EDISON-1","OBJECT_ID":"2025-009B","EPOCH":"2026-03-09T19:16:13.822464","MEAN_MOTION":15.29042904,"ECCENTRICITY":0.00043285,"INCLINATION":97.4042,"RA_OF_ASC_NODE":151.6286,"ARG_OF_PERICENTER":306.4185,"MEAN_ANOMALY":53.6655,"EPHEMERIS_TYPE":0,"CLASSIFICATION_TYPE":"U","NORAD_CAT_ID":62610,"ELEMENT_SET_NO":999,"REV_AT_EPOCH":6375,"BSTAR":0.00052814963,"MEAN_MOTION_DOT":0.00014835,"MEAN_MOTION_DDOT":0}]
